CCSDS_OMM_VERS = 2.0
CREATION_DATE  = 
ORIGINATOR     = 

OBJECT_NAME    = SL-3 R/B
OBJECT_ID      = 1982-039B
CENTER_NAME    = EARTH
REF_FRAME      = TEME
TIME_SYSTEM    = UTC
MEAN_ELEMENT_THEORY = SGP/SGP4

EPOCH          = 2025-11-11T05:12:15.264576
MEAN_MOTION    = 15.09261899
ECCENTRICITY   = .00322809
INCLINATION    = 81.1798
RA_OF_ASC_NODE = 352.3433
ARG_OF_PERICENTER = 355.5973
MEAN_ANOMALY   = 4.4962

EPHEMERIS_TYPE = 0
CLASSIFICATION_TYPE = U
NORAD_CAT_ID   = 13154
ELEMENT_SET_NO = 999
REV_AT_EPOCH   = 36376
BSTAR          = .24707194E-3
MEAN_MOTION_DOT = .4004E-4
MEAN_MOTION_DDOT = 0

CCSDS_OMM_VERS = 2.0
CREATION_DATE  = 
ORIGINATOR     = 

OBJECT_NAME    = SL-3 R/B
OBJECT_ID      = 1982-079B
CENTER_NAME    = EARTH
REF_FRAME      = TEME
TIME_SYSTEM    = UTC
MEAN_ELEMENT_THEORY = SGP/SGP4

EPOCH          = 2025-11-11T05:12:56.772000
MEAN_MOTION    = 15.23086872
ECCENTRICITY   = .00251209
INCLINATION    = 81.1467
RA_OF_ASC_NODE = 332.8090
ARG_OF_PERICENTER = 203.2385
MEAN_ANOMALY   = 156.7714

EPHEMERIS_TYPE = 0
CLASSIFICATION_TYPE = U
NORAD_CAT_ID   = 13403
ELEMENT_SET_NO = 999
REV_AT_EPOCH   = 35965
BSTAR          = .32100223E-3
MEAN_MOTION_DOT = .7659E-4
MEAN_MOTION_DDOT = 0

CCSDS_OMM_VERS = 2.0
CREATION_DATE  = 
ORIGINATOR     = 

OBJECT_NAME    = SL-14 R/B
OBJECT_ID      = 1982-092B
CENTER_NAME    = EARTH
REF_FRAME      = TEME
TIME_SYSTEM    = UTC
MEAN_ELEMENT_THEORY = SGP/SGP4

EPOCH          = 2025-11-11T07:44:57.060096
MEAN_MOTION    = 14.86501525
ECCENTRICITY   = .00198427
INCLINATION    = 82.5679
RA_OF_ASC_NODE = 252.0907
ARG_OF_PERICENTER = 338.4890
MEAN_ANOMALY   = 135.8074

EPHEMERIS_TYPE = 0
CLASSIFICATION_TYPE = U
NORAD_CAT_ID   = 13553
ELEMENT_SET_NO = 999
REV_AT_EPOCH   = 31134
BSTAR          = .13203567E-3
MEAN_MOTION_DOT = .1196E-4
MEAN_MOTION_DDOT = 0

CCSDS_OMM_VERS = 2.0
CREATION_DATE  = 
ORIGINATOR     = 

OBJECT_NAME    = SL-3 R/B
OBJECT_ID      = 1983-010B
CENTER_NAME    = EARTH
REF_FRAME      = TEME
TIME_SYSTEM    = UTC
MEAN_ELEMENT_THEORY = SGP/SGP4

EPOCH          = 2025-11-10T23:50:18.806208
MEAN_MOTION    = 15.42289494
ECCENTRICITY   = .00183658
INCLINATION    = 81.1033
RA_OF_ASC_NODE = 147.3362
ARG_OF_PERICENTER = 99.0544
MEAN_ANOMALY   = 261.2778

EPHEMERIS_TYPE = 0
CLASSIFICATION_TYPE = U
NORAD_CAT_ID   = 13819
ELEMENT_SET_NO = 999
REV_AT_EPOCH   = 33962
BSTAR          = .36804596E-3
MEAN_MOTION_DOT = .15975E-3
MEAN_MOTION_DDOT = 0

CCSDS_OMM_VERS = 2.0
CREATION_DATE  = 
ORIGINATOR     = 

OBJECT_NAME    = SL-3 R/B
OBJECT_ID      = 1983-075B
CENTER_NAME    = EARTH
REF_FRAME      = TEME
TIME_SYSTEM    = UTC
MEAN_ELEMENT_THEORY = SGP/SGP4

EPOCH          = 2025-11-11T06:00:08.858592
MEAN_MOTION    = 15.35214047
ECCENTRICITY   = .0021318
INCLINATION    = 97.6108
RA_OF_ASC_NODE = 310.6979
ARG_OF_PERICENTER = 295.4807
MEAN_ANOMALY   = 64.4230

EPHEMERIS_TYPE = 0
CLASSIFICATION_TYPE = U
NORAD_CAT_ID   = 14208
ELEMENT_SET_NO = 999
REV_AT_EPOCH   = 31196
BSTAR          = .45936587E-3
MEAN_MOTION_DOT = .15747E-3
MEAN_MOTION_DDOT = 0

CCSDS_OMM_VERS = 2.0
CREATION_DATE  = 
ORIGINATOR     = 

OBJECT_NAME    = COSMOS 1536
OBJECT_ID      = 1984-013A
CENTER_NAME    = EARTH
REF_FRAME      = TEME
TIME_SYSTEM    = UTC
MEAN_ELEMENT_THEORY = SGP/SGP4

EPOCH          = 2025-11-11T06:06:07.923168
MEAN_MOTION    = 15.21961847
ECCENTRICITY   = .00148891
INCLINATION    = 82.5465
RA_OF_ASC_NODE = 225.3721
ARG_OF_PERICENTER = 347.4424
MEAN_ANOMALY   = 12.6438

EPHEMERIS_TYPE = 0
CLASSIFICATION_TYPE = U
NORAD_CAT_ID   = 14699
ELEMENT_SET_NO = 999
REV_AT_EPOCH   = 25459
BSTAR          = .43738611E-3
MEAN_MOTION_DOT = .10037E-3
MEAN_MOTION_DDOT = 0

CCSDS_OMM_VERS = 2.0
CREATION_DATE  = 
ORIGINATOR     = 

OBJECT_NAME    = SL-14 R/B
OBJECT_ID      = 1984-027B
CENTER_NAME    = EARTH
REF_FRAME      = TEME
TIME_SYSTEM    = UTC
MEAN_ELEMENT_THEORY = SGP/SGP4

EPOCH          = 2025-11-11T04:10:00.293664
MEAN_MOTION    = 14.85825375
ECCENTRICITY   = .00182249
INCLINATION    = 82.5429
RA_OF_ASC_NODE = 356.1592
ARG_OF_PERICENTER = 11.0938
MEAN_ANOMALY   = 349.0676

EPHEMERIS_TYPE = 0
CLASSIFICATION_TYPE = U
NORAD_CAT_ID   = 14820
ELEMENT_SET_NO = 999
REV_AT_EPOCH   = 23003
BSTAR          = .91644584E-4
MEAN_MOTION_DOT = .823E-5
MEAN_MOTION_DDOT = 0

CCSDS_OMM_VERS = 2.0
CREATION_DATE  = 
ORIGINATOR     = 

OBJECT_NAME    = SL-8 R/B
OBJECT_ID      = 1985-006B
CENTER_NAME    = EARTH
REF_FRAME      = TEME
TIME_SYSTEM    = UTC
MEAN_ELEMENT_THEORY = SGP/SGP4

EPOCH          = 2025-11-11T06:02:39.204096
MEAN_MOTION    = 14.37691126
ECCENTRICITY   = .00175646
INCLINATION    = 74.0431
RA_OF_ASC_NODE = 119.0653
ARG_OF_PERICENTER = 61.5233
MEAN_ANOMALY   = 111.8710

EPHEMERIS_TYPE = 0
CLASSIFICATION_TYPE = U
NORAD_CAT_ID   = 15483
ELEMENT_SET_NO = 999
REV_AT_EPOCH   = 13700
BSTAR          = .15628604E-3
MEAN_MOTION_DOT = .444E-5
MEAN_MOTION_DDOT = 0

CCSDS_OMM_VERS = 2.0
CREATION_DATE  = 
ORIGINATOR     = 

OBJECT_NAME    = SL-12 R/B(2)
OBJECT_ID      = 1985-042D
CENTER_NAME    = EARTH
REF_FRAME      = TEME
TIME_SYSTEM    = UTC
MEAN_ELEMENT_THEORY = SGP/SGP4

EPOCH          = 2025-11-11T07:17:34.202976
MEAN_MOTION    = 14.21936416
ECCENTRICITY   = .00371807
INCLINATION    = 71.1086
RA_OF_ASC_NODE = 337.8339
ARG_OF_PERICENTER = 307.5494
MEAN_ANOMALY   = 130.6086

EPHEMERIS_TYPE = 0
CLASSIFICATION_TYPE = U
NORAD_CAT_ID   = 15772
ELEMENT_SET_NO = 999
REV_AT_EPOCH   = 9756
BSTAR          = .76617604E-4
MEAN_MOTION_DOT = .122E-5
MEAN_MOTION_DDOT = 0

CCSDS_OMM_VERS = 2.0
CREATION_DATE  = 
ORIGINATOR     = 

OBJECT_NAME    = SL-14 R/B
OBJECT_ID      = 1985-069B
CENTER_NAME    = EARTH
REF_FRAME      = TEME
TIME_SYSTEM    = UTC
MEAN_ELEMENT_THEORY = SGP/SGP4

EPOCH          = 2025-11-10T23:48:52.136640
MEAN_MOTION    = 14.86266285
ECCENTRICITY   = .00177605
INCLINATION    = 82.5245
RA_OF_ASC_NODE = 136.5507
ARG_OF_PERICENTER = 222.3476
MEAN_ANOMALY   = 137.6371

EPHEMERIS_TYPE = 0
CLASSIFICATION_TYPE = U
NORAD_CAT_ID   = 15945
ELEMENT_SET_NO = 999
REV_AT_EPOCH   = 15520
BSTAR          = .9260467E-4
MEAN_MOTION_DOT = .84E-5
MEAN_MOTION_DDOT = 0

CCSDS_OMM_VERS = 2.0
CREATION_DATE  = 
ORIGINATOR     = 

OBJECT_NAME    = SL-16 R/B
OBJECT_ID      = 1985-097B
CENTER_NAME    = EARTH
REF_FRAME      = TEME
TIME_SYSTEM    = UTC
MEAN_ELEMENT_THEORY = SGP/SGP4

EPOCH          = 2025-11-11T06:50:37.413600
MEAN_MOTION    = 14.16575827
ECCENTRICITY   = .00052117
INCLINATION    = 71.0046
RA_OF_ASC_NODE = 29.8233
ARG_OF_PERICENTER = 70.8547
MEAN_ANOMALY   = 346.8351

EPHEMERIS_TYPE = 0
CLASSIFICATION_TYPE = U
NORAD_CAT_ID   = 16182
ELEMENT_SET_NO = 999
REV_AT_EPOCH   = 7046
BSTAR          = -.27327374E-4
MEAN_MOTION_DOT = -.102E-5
MEAN_MOTION_DDOT = 0

CCSDS_OMM_VERS = 2.0
CREATION_DATE  = 
ORIGINATOR     = 

OBJECT_NAME    = SL-14 R/B
OBJECT_ID      = 1986-006B
CENTER_NAME    = EARTH
REF_FRAME      = TEME
TIME_SYSTEM    = UTC
MEAN_ELEMENT_THEORY = SGP/SGP4

EPOCH          = 2025-11-11T06:24:52.875360
MEAN_MOTION    = 14.86606222
ECCENTRICITY   = .00755222
INCLINATION    = 82.5292
RA_OF_ASC_NODE = 11.1625
ARG_OF_PERICENTER = 305.9532
MEAN_ANOMALY   = 53.4694

EPHEMERIS_TYPE = 0
CLASSIFICATION_TYPE = U
NORAD_CAT_ID   = 16496
ELEMENT_SET_NO = 999
REV_AT_EPOCH   = 13161
BSTAR          = .12089756E-3
MEAN_MOTION_DOT = .1154E-4
MEAN_MOTION_DDOT = 0

