SL-3 R/B                
1 13154U 82039B   25315.21684334  .00004004  00000+0  24707-3 0  9993
2 13154  81.1798 352.3433 0032280 355.5973   4.4962 15.09261899363765
SL-3 R/B                
1 13403U 82079B   25315.21732375  .00007659  00000+0  32100-3 0  9998
2 13403  81.1467 332.8090 0025120 203.2385 156.7714 15.23086872359659
SL-14 R/B               
1 13553U 82092B   25315.32288264  .00001196  00000+0  13204-3 0  9998
2 13553  82.5679 252.0907 0019842 338.4890 135.8074 14.86501525311347
SL-3 R/B                
1 13819U 83010B   25314.99327322  .00015975  00000+0  36805-3 0  9997
2 13819  81.1033 147.3362 0018365  99.0544 261.2778 15.42289494339624
SL-3 R/B                
1 14208U 83075B   25315.25010253  .00015747  00000+0  45937-3 0  9996
2 14208  97.6108 310.6979 0021318 295.4807  64.4230 15.35214047311964
COSMOS 1536             
1 14699U 84013A   25315.25425837  .00010037  00000+0  43739-3 0  9996
2 14699  82.5465 225.3721 0014889 347.4424  12.6438 15.21961847254594
SL-14 R/B               
1 14820U 84027B   25315.17361451  .00000823  00000+0  91645-4 0  9991
2 14820  82.5429 356.1592 0018224  11.0938 349.0676 14.85825375230038
SL-8 R/B                
1 15483U 85006B   25315.25184264  .00000444  00000+0  15629-3 0  9995
2 15483  74.0431 119.0653 0017564  61.5233 111.8710 14.37691126137000
SL-12 R/B(2)            
1 15772U 85042D   25315.30386809  .00000122  00000+0  76618-4 0  9990
2 15772  71.1086 337.8339 0037180 307.5494 130.6086 14.21936416 97562
SL-14 R/B               
1 15945U 85069B   25314.99227010  .00000840  00000+0  92605-4 0  9994
2 15945  82.5245 136.5507 0017760 222.3476 137.6371 14.86266285155205
SL-16 R/B               
1 16182U 85097B   25315.28515525 -.00000102  00000+0 -27327-4 0  9995
2 16182  71.0046  29.8233 0005211  70.8547 346.8351 14.16575827 70468
SL-14 R/B               
1 16496U 86006B   25315.26727865  .00001154  00000+0  12090-3 0  9990
2 16496  82.5292  11.1625 0075522 305.9532  53.4694 14.86606222131610
